CCSDS_OMM_VERS = 2.0
CREATION_DATE  = 
ORIGINATOR     = 

OBJECT_NAME    = COSMOS 2242
OBJECT_ID      = 1993-024A
CENTER_NAME    = EARTH
REF_FRAME      = TEME
TIME_SYSTEM    = UTC
MEAN_ELEMENT_THEORY = SGP/SGP4

EPOCH          = 2026-03-31T20:00:12.448224
MEAN_MOTION    = 14.96647649
ECCENTRICITY   = .0015245
INCLINATION    = 82.5167
RA_OF_ASC_NODE = 245.5296
ARG_OF_PERICENTER = 227.5286
MEAN_ANOMALY   = 132.4649

EPHEMERIS_TYPE = 0
CLASSIFICATION_TYPE = U
NORAD_CAT_ID   = 22626
ELEMENT_SET_NO = 999
REV_AT_EPOCH   = 78370
BSTAR          = .29338E-3
MEAN_MOTION_DOT = .3377E-4
MEAN_MOTION_DDOT = 0

CCSDS_OMM_VERS = 2.0
CREATION_DATE  = 
ORIGINATOR     = 

OBJECT_NAME    = SL-16 R/B
OBJECT_ID      = 1993-059B
CENTER_NAME    = EARTH
REF_FRAME      = TEME
TIME_SYSTEM    = UTC
MEAN_ELEMENT_THEORY = SGP/SGP4

EPOCH          = 2026-03-31T01:47:37.233600
MEAN_MOTION    = 14.17234538
ECCENTRICITY   = .00172963
INCLINATION    = 70.9914
RA_OF_ASC_NODE = 326.0327
ARG_OF_PERICENTER = 185.3137
MEAN_ANOMALY   = 174.7806

EPHEMERIS_TYPE = 0
CLASSIFICATION_TYPE = U
NORAD_CAT_ID   = 22803
ELEMENT_SET_NO = 999
REV_AT_EPOCH   = 68256
BSTAR          = -.53684701E-4
MEAN_MOTION_DOT = -.157E-5
MEAN_MOTION_DDOT = 0

CCSDS_OMM_VERS = 2.0
CREATION_DATE  = 
ORIGINATOR     = 

OBJECT_NAME    = ARIANE 40 R/B
OBJECT_ID      = 1993-061H
CENTER_NAME    = EARTH
REF_FRAME      = TEME
TIME_SYSTEM    = UTC
MEAN_ELEMENT_THEORY = SGP/SGP4

EPOCH          = 2026-03-31T09:58:44.008032
MEAN_MOTION    = 14.32872678
ECCENTRICITY   = .0010146
INCLINATION    = 98.4876
RA_OF_ASC_NODE = 158.8705
ARG_OF_PERICENTER = 214.2956
MEAN_ANOMALY   = 145.7574

EPHEMERIS_TYPE = 0
CLASSIFICATION_TYPE = U
NORAD_CAT_ID   = 22830
ELEMENT_SET_NO = 999
REV_AT_EPOCH   = 69721
BSTAR          = .11495071E-3
MEAN_MOTION_DOT = .271E-5
MEAN_MOTION_DDOT = 0

CCSDS_OMM_VERS = 2.0
CREATION_DATE  = 
ORIGINATOR     = 

OBJECT_NAME    = COSMOS 2278
OBJECT_ID      = 1994-023A
CENTER_NAME    = EARTH
REF_FRAME      = TEME
TIME_SYSTEM    = UTC
MEAN_ELEMENT_THEORY = SGP/SGP4

EPOCH          = 2026-03-31T12:31:44.263776
MEAN_MOTION    = 14.14374929
ECCENTRICITY   = .00092413
INCLINATION    = 71.0510
RA_OF_ASC_NODE = 129.4230
ARG_OF_PERICENTER = 340.2097
MEAN_ANOMALY   = 19.8665

EPHEMERIS_TYPE = 0
CLASSIFICATION_TYPE = U
NORAD_CAT_ID   = 23087
ELEMENT_SET_NO = 999
REV_AT_EPOCH   = 64789
BSTAR          = -.3452393E-4
MEAN_MOTION_DOT = -.113E-5
MEAN_MOTION_DDOT = 0

CCSDS_OMM_VERS = 2.0
CREATION_DATE  = 
ORIGINATOR     = 

OBJECT_NAME    = SL-16 R/B
OBJECT_ID      = 1994-023B
CENTER_NAME    = EARTH
REF_FRAME      = TEME
TIME_SYSTEM    = UTC
MEAN_ELEMENT_THEORY = SGP/SGP4

EPOCH          = 2026-03-31T13:24:31.420800
MEAN_MOTION    = 14.15017450
ECCENTRICITY   = .0005509
INCLINATION    = 71.0025
RA_OF_ASC_NODE = 24.9584
ARG_OF_PERICENTER = 265.8842
MEAN_ANOMALY   = 94.1651

EPHEMERIS_TYPE = 0
CLASSIFICATION_TYPE = U
NORAD_CAT_ID   = 23088
ELEMENT_SET_NO = 999
REV_AT_EPOCH   = 64918
BSTAR          = .18134E-3
MEAN_MOTION_DOT = .304E-5
MEAN_MOTION_DDOT = 0

CCSDS_OMM_VERS = 2.0
CREATION_DATE  = 
ORIGINATOR     = 

OBJECT_NAME    = SL-16 R/B
OBJECT_ID      = 1994-074B
CENTER_NAME    = EARTH
REF_FRAME      = TEME
TIME_SYSTEM    = UTC
MEAN_ELEMENT_THEORY = SGP/SGP4

EPOCH          = 2026-03-31T12:34:56.226432
MEAN_MOTION    = 14.79433277
ECCENTRICITY   = .0007474
INCLINATION    = 97.7076
RA_OF_ASC_NODE = 120.4548
ARG_OF_PERICENTER = 140.6216
MEAN_ANOMALY   = 26.3571

EPHEMERIS_TYPE = 0
CLASSIFICATION_TYPE = U
NORAD_CAT_ID   = 23343
ELEMENT_SET_NO = 999
REV_AT_EPOCH   = 69047
BSTAR          = .94883494E-4
MEAN_MOTION_DOT = .659E-5
MEAN_MOTION_DDOT = 0

CCSDS_OMM_VERS = 2.0
CREATION_DATE  = 
ORIGINATOR     = 

OBJECT_NAME    = SL-16 R/B
OBJECT_ID      = 1994-077B
CENTER_NAME    = EARTH
REF_FRAME      = TEME
TIME_SYSTEM    = UTC
MEAN_ELEMENT_THEORY = SGP/SGP4

EPOCH          = 2026-03-31T21:14:30.928416
MEAN_MOTION    = 14.15568905
ECCENTRICITY   = .0001773
INCLINATION    = 70.9828
RA_OF_ASC_NODE = 305.7959
ARG_OF_PERICENTER = 194.5976
MEAN_ANOMALY   = 165.5096

EPHEMERIS_TYPE = 0
CLASSIFICATION_TYPE = U
NORAD_CAT_ID   = 23405
ELEMENT_SET_NO = 999
REV_AT_EPOCH   = 61937
BSTAR          = -.48686E-4
MEAN_MOTION_DOT = -.143E-5
MEAN_MOTION_DDOT = 0

CCSDS_OMM_VERS = 2.0
CREATION_DATE  = 
ORIGINATOR     = 

OBJECT_NAME    = ARIANE 40+ R/B
OBJECT_ID      = 1995-021B
CENTER_NAME    = EARTH
REF_FRAME      = TEME
TIME_SYSTEM    = UTC
MEAN_ELEMENT_THEORY = SGP/SGP4

EPOCH          = 2026-03-31T11:45:03.413376
MEAN_MOTION    = 14.39788277
ECCENTRICITY   = .00078961
INCLINATION    = 98.4459
RA_OF_ASC_NODE = 161.6727
ARG_OF_PERICENTER = 80.3952
MEAN_ANOMALY   = 290.4651

EPHEMERIS_TYPE = 0
CLASSIFICATION_TYPE = U
NORAD_CAT_ID   = 23561
ELEMENT_SET_NO = 999
REV_AT_EPOCH   = 62238
BSTAR          = .13541534E-3
MEAN_MOTION_DOT = .381E-5
MEAN_MOTION_DDOT = 0

CCSDS_OMM_VERS = 2.0
CREATION_DATE  = 
ORIGINATOR     = 

OBJECT_NAME    = SL-16 R/B
OBJECT_ID      = 1995-058B
CENTER_NAME    = EARTH
REF_FRAME      = TEME
TIME_SYSTEM    = UTC
MEAN_ELEMENT_THEORY = SGP/SGP4

EPOCH          = 2026-03-31T12:57:19.812960
MEAN_MOTION    = 14.15498354
ECCENTRICITY   = .00101847
INCLINATION    = 71.0197
RA_OF_ASC_NODE = 134.3839
ARG_OF_PERICENTER = 85.5031
MEAN_ANOMALY   = 274.7255

EPHEMERIS_TYPE = 0
CLASSIFICATION_TYPE = U
NORAD_CAT_ID   = 23705
ELEMENT_SET_NO = 999
REV_AT_EPOCH   = 57094
BSTAR          = -.68168581E-4
MEAN_MOTION_DOT = -.181E-5
MEAN_MOTION_DDOT = 0

CCSDS_OMM_VERS = 2.0
CREATION_DATE  = 
ORIGINATOR     = 

OBJECT_NAME    = SL-16 R/B
OBJECT_ID      = 1996-051B
CENTER_NAME    = EARTH
REF_FRAME      = TEME
TIME_SYSTEM    = UTC
MEAN_ELEMENT_THEORY = SGP/SGP4

EPOCH          = 2026-03-31T13:17:42.361728
MEAN_MOTION    = 14.12422119
ECCENTRICITY   = .0013325
INCLINATION    = 70.7583
RA_OF_ASC_NODE = 128.9624
ARG_OF_PERICENTER = 112.4783
MEAN_ANOMALY   = 247.7749

EPHEMERIS_TYPE = 0
CLASSIFICATION_TYPE = U
NORAD_CAT_ID   = 24298
ELEMENT_SET_NO = 999
REV_AT_EPOCH   = 52473
BSTAR          = .10702E-3
MEAN_MOTION_DOT = .148E-5
MEAN_MOTION_DDOT = 0

CCSDS_OMM_VERS = 2.0
CREATION_DATE  = 
ORIGINATOR     = 

OBJECT_NAME    = ORBVIEW 2 (SEASTAR)
OBJECT_ID      = 1997-037A
CENTER_NAME    = EARTH
REF_FRAME      = TEME
TIME_SYSTEM    = UTC
MEAN_ELEMENT_THEORY = SGP/SGP4

EPOCH          = 2026-03-31T17:20:17.622816
MEAN_MOTION    = 14.35510676
ECCENTRICITY   = .0002256
INCLINATION    = 98.8605
RA_OF_ASC_NODE = 255.6224
ARG_OF_PERICENTER = 22.6431
MEAN_ANOMALY   = 337.4853

EPHEMERIS_TYPE = 0
CLASSIFICATION_TYPE = U
NORAD_CAT_ID   = 24883
ELEMENT_SET_NO = 999
REV_AT_EPOCH   = 51163
BSTAR          = .14851E-3
MEAN_MOTION_DOT = .381E-5
MEAN_MOTION_DDOT = 0

CCSDS_OMM_VERS = 2.0
CREATION_DATE  = 
ORIGINATOR     = 

OBJECT_NAME    = SL-16 R/B
OBJECT_ID      = 1998-043G
CENTER_NAME    = EARTH
REF_FRAME      = TEME
TIME_SYSTEM    = UTC
MEAN_ELEMENT_THEORY = SGP/SGP4

EPOCH          = 2026-03-31T18:18:29.814912
MEAN_MOTION    = 14.26055031
ECCENTRICITY   = .0009082
INCLINATION    = 98.8292
RA_OF_ASC_NODE = 44.2878
ARG_OF_PERICENTER = 315.3646
MEAN_ANOMALY   = 44.6801

EPHEMERIS_TYPE = 0
CLASSIFICATION_TYPE = U
NORAD_CAT_ID   = 25400
ELEMENT_SET_NO = 999
REV_AT_EPOCH   = 44213
BSTAR          = .56553E-4
MEAN_MOTION_DOT = .9E-6
MEAN_MOTION_DDOT = 0

